CORVUS BC2              
1 42846U 17042X   18144.73051070  .00000191  00000-0  24313-4 0  9997
2 42846  97.5994  48.4483 0008058 276.3679  83.6622 14.91809896 46878
CORVUS BC1              
1 42847U 17042Y   18144.70973296 -.00000029  00000-0  24357-5 0  9998
2 42847  97.5993  48.4741 0007704 276.0994  83.9348 14.91908991 46862
SILU-1 (SILKROAD 1)     
1 42903U 17021F   18145.27813294  .00019628  00000-0  15653-3 0  9993
2 42903  42.7779 106.8917 0010455 144.8506 358.5779 15.70698005 46321
MIRATA                  
1 43015U 17073C   18144.80185288  .00001463  00000-0  12104-3 0  9994
2 43015  97.7038  76.8008 0258236 348.0412  11.4740 14.78085377 27686
ASTERIA                 
1 43020U 98067NH  18145.38896529  .00005700  00000-0  78861-4 0  9994
2 43020  51.6403 128.8305 0003390  79.4409 280.6966 15.58777382 28937
DELLINGR (RBLE)         
1 43021U 98067NJ  18145.41527865  .00005285  00000-0  77805-4 0  9998
2 43021  51.6379 129.7382 0003135  74.9352 285.1987 15.57250106 28920
TECHEDSAT 6             
1 43026U 98067NK  18135.04917276  .24108771  12366-4  25107-2 0  9998
2 43026  51.6059 164.5237 0004943 311.1143  50.3672 16.36895032 27437
OSIRIS-3U               
1 43027U 98067NL  18145.52875801  .00019247  00000-0  21167-3 0  9994
2 43027  51.6364 125.2370 0004925  59.1952 300.9527 15.63177950 28879
AEROCUBE 7B             
1 43042U 17071F   18145.45480885  .00003307  00000-0  95238-4 0  9994
2 43042  51.6374 152.2502 0004937 175.8072 184.2955 15.38722948 26103
AEROCUBE 7C             
1 43043U 17071G   18145.45480117  .00002063  00000-0  63289-4 0  9992
2 43043  51.6380 152.2535 0004939 178.7811 181.3186 15.38720944 26076
CHEFSAT                 
1 43044U 17071H   18145.21642120  .00002538  00000-0  73662-4 0  9994
2 43044  51.6385 152.9263 0004776 177.8324 182.2682 15.39509329 26046
ASGARDIA 1              
1 43049U 17071N   18144.46343958  .00001979  00000-0  60849-4 0  9993
2 43049  51.6382 156.8892 0002290 189.8162 170.2778 15.38851375 25919
ISARA                   
1 43050U 17071P   18144.56725160  .00004408  00000-0  12092-3 0  9991
2 43050  51.6379 156.0909 0002114 187.0838 173.0117 15.39384210 25944
FAUNA                   
1 43052U 17071R   18145.23315941  .00002625  00000-0  77072-4 0  9999
2 43052  51.6383 153.0356 0002175 187.9240 172.1711 15.38979673 26030
CORVUS BC3              
1 43118U 18004H   18144.93746836  .00000731  00000-0  34900-4 0  9995
2 43118  97.5347 207.4797 0010983 167.7772 192.3733 15.22207167 20179
MICROMAS-2A             
1 43131U 18004W   18144.70856395  .00001563  00000-0  70081-4 0  9991
2 43131  97.5356 207.3336 0010140 170.8321 189.3102 15.22714474 20149
GOMX4-B                 
1 43196U 18015E   18144.89333822  .00000379  00000-0  18774-4 0  9994
2 43196  97.3430 274.3112 0017804 237.3306 122.6210 15.23539499 16983
GOMX4-A                 
1 43197U 18015F   18145.43094833  .00000383  00000-0  18875-4 0  9999
2 43197  97.3427 274.8388 0017980 235.9559 196.7242 15.23634607 17074
UBAKUSAT                
1 43466U 98067NP  18145.45300789  .00008972  00000-0  13741-3 0  9993
2 43466  51.6412 131.9474 0001585  69.6458  66.5792 15.55159102  2168
1KUNS-PF                
1 43467U 98067NQ  18145.50773358  .00007040  00000-0  10925-3 0  9992
2 43467  51.6422 131.6677 0003681  56.6799  29.0114 15.55189611  2176
IRAZU                   
1 43468U 98067NR  18144.40011079  .00009314  00000-0  14213-3 0  9996
2 43468  51.6412 137.1995 0001385  59.7597 300.3552 15.55207501101988
